$$SOE
2460154.500000000, A.D. 2023-Jul-29 00:00:00.0000, 3.048417453881987E+08, 1.955691175914659E+08, 6.069240683537299E+07,
2460161.500000000, A.D. 2023-Aug-05 00:00:00.0000, 2.995339840711884E+08, 2.060940775443337E+08, 6.173322101351831E+07,
2460168.500000000, A.D. 2023-Aug-12 00:00:00.0000, 2.939365186750544E+08, 2.164197259433429E+08, 6.271423439261200E+07,
2460175.500000000, A.D. 2023-Aug-19 00:00:00.0000, 2.880583741953741E+08, 2.265387219385950E+08, 6.363526668377668E+07,
2460182.500000000, A.D. 2023-Aug-26 00:00:00.0000, 2.819086721213518E+08, 2.364441483506618E+08, 6.449621162104741E+07,
2460189.500000000, A.D. 2023-Sep-02 00:00:00.0000, 2.754966098259760E+08, 2.461295042563044E+08, 6.529703372641830E+07,
2460196.500000000, A.D. 2023-Sep-09 00:00:00.0000, 2.688314411660181E+08, 2.555886966464750E+08, 6.603776506094256E+07,
2460203.500000000, A.D. 2023-Sep-16 00:00:00.0000, 2.619224584588954E+08, 2.648160312116471E+08, 6.671850195933838E+07,
2460210.500000000, A.D. 2023-Sep-23 00:00:00.0000, 2.547789762447079E+08, 2.738062026481532E+08, 6.733940174949366E+07,
2460217.500000000, A.D. 2023-Sep-30 00:00:00.0000, 2.474103164785837E+08, 2.825542857730733E+08, 6.790067959852181E+07,
2460224.500000000, A.D. 2023-Oct-07 00:00:00.0000, 2.398257927720076E+08, 2.910557269924612E+08, 6.840260566662969E+07,
2460231.500000000, A.D. 2023-Oct-14 00:00:00.0000, 2.320346946905203E+08, 2.993063328973860E+08, 6.884550221294264E+07,
2460238.500000000, A.D. 2023-Oct-21 00:00:00.0000, 2.240462753047199E+08, 3.073022576707155E+08, 6.922974049703264E+07,
2460245.500000000, A.D. 2023-Oct-28 00:00:00.0000, 2.158697405294909E+08, 3.150399916351147E+08, 6.955573779738815E+07,
2460252.500000000, A.D. 2023-Nov-04 00:00:00.0000, 2.075142389570512E+08, 3.225163502404493E+08, 6.982395460522497E+07,
2460259.500000000, A.D. 2023-Nov-11 00:00:00.0000, 1.989888523194039E+08, 3.297284629552630E+08, 7.003489193556927E+07,
2460266.500000000, A.D. 2023-Nov-18 00:00:00.0000, 1.903025867587076E+08, 3.366737620546519E+08, 7.018908873595341E+07,
2460273.500000000, A.D. 2023-Nov-25 00:00:00.0000, 1.814643649358631E+08, 3.433499713753209E+08, 7.028711939121172E+07,
2460280.500000000, A.D. 2023-Dec-02 00:00:00.0000, 1.724830189603270E+08, 3.497550950680792E+08, 7.032959132218474E+07,
2460287.500000000, A.D. 2023-Dec-09 00:00:00.0000, 1.633672841717995E+08, 3.558874063256404E+08, 7.031714266664483E+07,
2460294.500000000, A.D. 2023-Dec-16 00:00:00.0000, 1.541257940137837E+08, 3.617454361320041E+08, 7.025044001722188E+07,
2460301.500000000, A.D. 2023-Dec-23 00:00:00.0000, 1.447670763019111E+08, 3.673279627521069E+08, 7.013017624090798E+07,
2460308.500000000, A.D. 2023-Dec-30 00:00:00.0000, 1.352995495044543E+08, 3.726340030364901E+08, 6.995706858831123E+07,
2460315.500000000, A.D. 2024-Jan-06 00:00:00.0000, 1.257315172183426E+08, 3.776628031979203E+08, 6.973185706018245E+07,
2460322.500000000, A.D. 2024-Jan-13 00:00:00.0000, 1.160711639691655E+08, 3.824138272730640E+08, 6.945530259188354E+07,
2460329.500000000, A.D. 2024-Jan-20 00:00:00.0000, 1.063265535220841E+08, 3.868867463722752E+08, 6.912818519486529E+07,
2460336.500000000, A.D. 2024-Jan-27 00:00:00.0000, 9.650562763853602E+07, 3.910814293790851E+08, 6.875130229136805E+07,
2460343.500000000, A.D. 2024-Feb-03 00:00:00.0000, 8.661620481277698E+07, 3.949979341574240E+08, 6.832546720070352E+07,
2460350.500000000, A.D. 2024-Feb-10 00:00:00.0000, 7.666597922979043E+07, 3.986364989811326E+08, 6.785150772472724E+07,
2460357.500000000, A.D. 2024-Feb-17 00:00:00.0000, 6.666252004945267E+07, 4.019975341975556E+08, 6.733026481723678E+07,
2460364.500000000, A.D. 2024-Feb-24 00:00:00.0000, 5.661327102086293E+07, 4.050816141419641E+08, 6.676259133194607E+07,
2460371.500000000, A.D. 2024-Mar-02 00:00:00.0000, 4.652555042585682E+07, 4.078894692705361E+08, 6.614935084040192E+07,
2460378.500000000, A.D. 2024-Mar-09 00:00:00.0000, 3.640655146176965E+07, 4.104219784478335E+08, 6.549141649871075E+07,
2460385.500000000, A.D. 2024-Mar-16 00:00:00.0000, 2.626334343147995E+07, 4.126801615840002E+08, 6.478966993982407E+07,
2460392.500000000, A.D. 2024-Mar-23 00:00:00.0000, 1.610287361199347E+07, 4.146651737288243E+08, 6.404500028866452E+07,
2460399.500000000, A.D. 2024-Mar-30 00:00:00.0000, 5.931967538802248E+06, 4.163783005917401E+08, 6.325830350015646E+07,
2460406.500000000, A.D. 2024-Apr-06 00:00:00.0000, -4.242672060029021E+06, 4.178209521105545E+08, 6.243048171737885E+07,
2460413.500000000, A.D. 2024-Apr-13 00:00:00.0000, -1.441446415289850E+07, 4.189946548997509E+08, 6.156244238988945E+07,
2460420.500000000, A.D. 2024-Apr-20 00:00:00.0000, -2.457694708751233E+07, 4.199010462525541E+08, 6.065509745614451E+07,
2460427.500000000, A.D. 2024-Apr-27 00:00:00.0000, -3.472377660081234E+07, 4.205418691280744E+08, 5.970936268013650E+07,
2460434.500000000, A.D. 2024-May-04 00:00:00.0000, -4.484872408481702E+07, 4.209189674117771E+08, 5.872615707370561E+07,
2460441.500000000, A.D. 2024-May-11 00:00:00.0000, -5.494567488588911E+07, 4.210342813399709E+08, 5.770640237173799E+07,
2460448.500000000, A.D. 2024-May-18 00:00:00.0000, -6.500862656999815E+07, 4.208898431027775E+08, 5.665102255210328E+07,
2460455.500000000, A.D. 2024-May-25 00:00:00.0000, -7.503168714261442E+07, 4.204877726114017E+08, 5.556094339523429E+07,
2460462.500000000, A.D. 2024-Jun-01 00:00:00.0000, -8.500907317556334E+07, 4.198302733652541E+08, 5.443709207104442E+07,
2460469.500000000, A.D. 2024-Jun-08 00:00:00.0000, -9.493510760545181E+07, 4.189196283888900E+08, 5.328039672665715E+07,
2460476.500000000, A.D. 2024-Jun-15 00:00:00.0000, -1.048042168140284E+08, 4.177581967767825E+08, 5.209178608082932E+07,
2460483.500000000, A.D. 2024-Jun-22 00:00:00.0000, -1.146109280041472E+08, 4.163484120145081E+08, 5.087218921125409E+07,
2460490.500000000, A.D. 2024-Jun-29 00:00:00.0000, -1.243498689985005E+08, 4.146927802468674E+08, 4.962253557797679E+07,
2460497.500000000, A.D. 2024-Jul-06 00:00:00.0000, -1.340157678226391E+08, 4.127938760077015E+08, 4.834375483549431E+07,
2460504.500000000, A.D. 2024-Jul-13 00:00:00.0000, -1.436034501345248E+08, 4.106543382253681E+08, 4.703677648400068E+07,
2460511.500000000, A.D. 2024-Jul-20 00:00:00.0000, -1.531078364958915E+08, 4.082768676484013E+08, 4.570252963495007E+07,
2460518.500000000, A.D. 2024-Jul-27 00:00:00.0000, -1.625239401481544E+08, 4.056642247271113E+08, 4.434194287159932E+07,
2460525.500000000, A.D. 2024-Aug-03 00:00:00.0000, -1.718468650256635E+08, 4.028192275711942E+08, 4.295594414758861E+07,
2460532.500000000, A.D. 2024-Aug-10 00:00:00.0000, -1.810718038450608E+08, 3.997447499739490E+08, 4.154546070644647E+07,
2460539.500000000, A.D. 2024-Aug-17 00:00:00.0000, -1.901940362271228E+08, 3.964437195192266E+08, 4.011141901767316E+07,
2460546.500000000, A.D. 2024-Aug-24 00:00:00.0000, -1.992089268267024E+08, 3.929191157426918E+08, 3.865474472316703E+07,
2460553.500000000, A.D. 2024-Aug-31 00:00:00.0000, -2.081119233585721E+08, 3.891739682795317E+08, 3.717636257658148E+07,
2460560.500000000, A.D. 2024-Sep-07 00:00:00.0000, -2.168985541571460E+08, 3.852113551186686E+08, 3.567719635077119E+07,
2460567.500000000, A.D. 2024-Sep-14 00:00:00.0000, -2.255644251887318E+08, 3.810344019536072E+08, 3.415816878544985E+07,
2460574.500000000, A.D. 2024-Sep-21 00:00:00.0000, -2.341052185491442E+08, 3.766462830385712E+08, 3.262020179358499E+07,
2460581.500000000, A.D. 2024-Sep-28 00:00:00.0000, -2.425166929355129E+08, 3.720502203182121E+08, 3.106421670610602E+07,
2460588.500000000, A.D. 2024-Oct-05 00:00:00.0000, -2.507946824233493E+08, 3.672494808245682E+08, 2.949113421714744E+07,
2460595.500000000, A.D. 2024-Oct-12 00:00:00.0000, -2.589350939141344E+08, 3.622473753157741E+08, 2.790187430556828E+07,
2460602.500000000, A.D. 2024-Oct-19 00:00:00.0000, -2.669339050077933E+08, 3.570472578836538E+08, 2.629735627036665E+07,
2460609.500000000, A.D. 2024-Oct-26 00:00:00.0000, -2.747871623336887E+08, 3.516525257252955E+08, 2.467849881653339E+07,
2460616.500000000, A.D. 2024-Nov-02 00:00:00.0000, -2.824909800841999E+08, 3.460666189258716E+08, 2.304622015477040E+07,
2460623.500000000, A.D. 2024-Nov-09 00:00:00.0000, -2.900415386560162E+08, 3.402930202694447E+08, 2.140143810716099E+07,
2460630.500000000, A.D. 2024-Nov-16 00:00:00.0000, -2.974350833749561E+08, 3.343352550744833E+08, 1.974507021575673E+07,
2460637.500000000, A.D. 2024-Nov-23 00:00:00.0000, -3.046679232589942E+08, 3.281968910008612E+08, 1.807803384506632E+07,
2460644.500000000, A.D. 2024-Nov-30 00:00:00.0000, -3.117364296127105E+08, 3.218815377824240E+08, 1.640124625527479E+07,
2460651.500000000, A.D. 2024-Dec-07 00:00:00.0000, -3.186370340353034E+08, 3.153928473023807E+08, 1.471562464157298E+07,
2460658.500000000, A.D. 2024-Dec-14 00:00:00.0000, -3.253662265331396E+08, 3.087345152323966E+08, 1.302208630230047E+07,
2460665.500000000, A.D. 2024-Dec-21 00:00:00.0000, -3.319205560584553E+08, 3.019102829931422E+08, 1.132154904664177E+07,
2460672.500000000, A.D. 2024-Dec-28 00:00:00.0000, -3.382966315021955E+08, 2.949239370674951E+08, 9.614931417983636E+06,
2460679.500000000, A.D. 2025-Jan-04 00:00:00.0000, -3.444911205433732E+08, 2.877793080376175E+08, 7.903152688659042E+06,
2460686.500000000, A.D. 2025-Jan-11 00:00:00.0000, -3.505007481798132E+08, 2.804802710020685E+08, 6.187132928476766E+06,
2460693.500000000, A.D. 2025-Jan-18 00:00:00.0000, -3.563222958607244E+08, 2.730307464534355E+08, 4.467793155613631E+06,
2460700.500000000, A.D. 2025-Jan-25 00:00:00.0000, -3.619526009792276E+08, 2.654347011406642E+08, 2.746055508360580E+06,
2460707.500000000, A.D. 2025-Feb-01 00:00:00.0000, -3.673885565367607E+08, 2.576961488839037E+08, 1.022843417505220E+06,
2460714.500000000, A.D. 2025-Feb-08 00:00:00.0000, -3.726271109225425E+08, 2.498191513595274E+08, -7.009182248289585E+05,
2460721.500000000, A.D. 2025-Feb-15 00:00:00.0000, -3.776652677806880E+08, 2.418078188334402E+08, -2.424302904660672E+06,
$$EOE